[{"OBJECT_NAME":"STARLINK-35073","OBJECT_ID":"2025-191G","EPOCH":"2026-03-09T15:33:17.880768","MEAN_MOTION":15.05647111,"ECCENTRICITY":0.0002493,"INCLINATION":97.6029,"RA_OF_ASC_NODE":301.4921,"ARG_OF_PERICENTER":90.8695,"MEAN_ANOMALY":269.2817,"EPHEMERIS_TYPE":0,"CLASSIFICATION_TYPE":"U","NORAD_CAT_ID":65385,"ELEMENT_SET_NO":999,"REV_AT_EPOCH":3026,"BSTAR":0.00013482,"MEAN_MOTION_DOT":1.885e-5,"MEAN_MOTION_DDOT":0},{"OBJECT_NAME":"ATLAS 28E DEB","OBJECT_ID":"1990-031G","EPOCH":"2026-03-09T13:30:42.820704","MEAN_MOTION":15.01077751,"ECCENTRICITY":0.00267601,"INCLINATION":90.3468,"RA_OF_ASC_NODE":293.9289,"ARG_OF_PERICENTER":41.2715,"MEAN_ANOMALY":319.0536,"EPHEMERIS_TYPE":0,"CLASSIFICATION_TYPE":"U","NORAD_CAT_ID":20575,"ELEMENT_SET_NO":999,"REV_AT_EPOCH":38014,"BSTAR":0.00040945673,"MEAN_MOTION_DOT":5.29e-5,"MEAN_MOTION_DDOT":0}]
